IRIDIUM 171             
1 43929U 19002H   24174.89434043 -.00000056  00000+0 -27130-4 0  9991
2 43929  86.3968 296.4824 0002259  91.5407 268.6047 14.34217018285142
IRIDIUM 170             
1 43930U 19002J   24174.90129776  .00000151  00000+0  19979-4 0  9995
2 43930  86.6090 296.2981 0002201  93.9853 266.1616 14.72248362292694
IRIDIUM 167             
1 43931U 19002K   24174.88799722  .00000015  00000+0 -17549-5 0  9999
2 43931  86.3959 296.2748 0002142  94.6846 265.4594 14.34217573285148
IRIDIUM 181             
1 56726U 23068S   24175.48416255  .00000435  00000+0  12286-3 0  9992
2 56726  86.8637 350.0650 0002411  94.3326 265.8151 14.43567153 58044
IRIDIUM 177             
1 56727U 23068T   24175.44457201  .00000953  00000+0  12187-3 0  9990
2 56727  86.1972 312.3881 0002691  87.5479 272.6050 14.80227589 59301
IRIDIUM 174             
1 56728U 23068U   24174.89832513  .00000710  00000+0  89925-4 0  9998
2 56728  86.1984 312.7509 0002119 100.6332 259.5128 14.80226660 59226
IRIDIUM 178             
1 56729U 23068V   24174.89291277  .00001669  00000+0  21612-3 0  9997
2 56729  86.5782 330.4904 0001919  91.9404 268.2037 14.80240423 59221
IRIDIUM 179             
1 56730U 23068W   24174.95511713  .00001715  00000+0  22220-3 0  9994
2 56730  86.6790 334.6712 0002054  95.0619 265.0837 14.80238292 59235
